[Satellite]
VERSION=1.1
NAME=UWE-3
NICKNAME=UWE-3
TLE1=1 39446U 13066AG  18020.52569512  .00000191  00000-0  32445-4 0  9991
TLE2=2 39446  97.6064  50.3425 0068971 297.8075  61.6157 14.78132886223302
